[{"CCSDS_OMM_VERS":"2.0","COMMENT":"GENERATED VIA SPACE-TRACK.ORG API","CREATION_DATE":"2023-01-11T22:36:14","ORIGINATOR":"18 SPCS","OBJECT_NAME":"GALILEO-FM3","OBJECT_ID":"2012-055A","CENTER_NAME":"EARTH","REF_FRAME":"TEME","TIME_SYSTEM":"UTC","MEAN_ELEMENT_THEORY":"SGP4","EPOCH":"2023-01-10T22:36:37.360512","MEAN_MOTION":"1.70473687","ECCENTRICITY":"0.00029100","INCLINATION":"55.2027","RA_OF_ASC_NODE":"135.9934","ARG_OF_PERICENTER":"237.9178","MEAN_ANOMALY":"122.0209","EPHEMERIS_TYPE":"0","CLASSIFICATION_TYPE":"U","NORAD_CAT_ID":"38857","ELEMENT_SET_NO":"999","REV_AT_EPOCH":"6378","BSTAR":"0.00000000000000","MEAN_MOTION_DOT":"0.00000024","MEAN_MOTION_DDOT":"0.0000000000000","SEMIMAJOR_AXIS":"29600.356","PERIOD":"844.705","APOAPSIS":"23230.835","PERIAPSIS":"23213.608","OBJECT_TYPE":"PAYLOAD","RCS_SIZE":"LARGE","COUNTRY_CODE":"ESA","LAUNCH_DATE":"2012-10-12","SITE":"FRGUI","DECAY_DATE":null,"FILE":"3740194","GP_ID":"222796592","TLE_LINE0":"0 GALILEO-FM3","TLE_LINE1":"1 38857U 12055A   23010.94209908  .00000024  00000-0  00000+0 0  9996","TLE_LINE2":"2 38857  55.2027 135.9934 0002910 237.9178 122.0209  1.70473687 63780"},{"CCSDS_OMM_VERS":"2.0","COMMENT":"GENERATED VIA SPACE-TRACK.ORG API","CREATION_DATE":"2023-01-13T20:32:32","ORIGINATOR":"18 SPCS","OBJECT_NAME":"GALILEO-FM3","OBJECT_ID":"2012-055A","CENTER_NAME":"EARTH","REF_FRAME":"TEME","TIME_SYSTEM":"UTC","MEAN_ELEMENT_THEORY":"SGP4","EPOCH":"2023-01-12T16:50:41.313120","MEAN_MOTION":"1.70473572","ECCENTRICITY":"0.00030760","INCLINATION":"55.2031","RA_OF_ASC_NODE":"135.9449","ARG_OF_PERICENTER":"241.5081","MEAN_ANOMALY":"118.4366","EPHEMERIS_TYPE":"0","CLASSIFICATION_TYPE":"U","NORAD_CAT_ID":"38857","ELEMENT_SET_NO":"999","REV_AT_EPOCH":"6367","BSTAR":"0.00000000000000","MEAN_MOTION_DOT":"0.00000032","MEAN_MOTION_DDOT":"0.0000000000000","SEMIMAJOR_AXIS":"29600.370","PERIOD":"844.706","APOAPSIS":"23231.340","PERIAPSIS":"23213.130","OBJECT_TYPE":"PAYLOAD","RCS_SIZE":"LARGE","COUNTRY_CODE":"ESA","LAUNCH_DATE":"2012-10-12","SITE":"FRGUI","DECAY_DATE":null,"FILE":"3743417","GP_ID":"222933489","TLE_LINE0":"0 GALILEO-FM3","TLE_LINE1":"1 38857U 12055A   23012.70186705  .00000032  00000-0  00000-0 0  9991","TLE_LINE2":"2 38857  55.2031 135.9449 0003076 241.5081 118.4366  1.70473572 63678"},{"CCSDS_OMM_VERS":"2.0","COMMENT":"GENERATED VIA SPACE-TRACK.ORG API","CREATION_DATE":"2023-01-13T04:28:49","ORIGINATOR":"18 SPCS","OBJECT_NAME":"GALILEO-FM3","OBJECT_ID":"2012-055A","CENTER_NAME":"EARTH","REF_FRAME":"TEME","TIME_SYSTEM":"UTC","MEAN_ELEMENT_THEORY":"SGP4","EPOCH":"2023-01-12T16:50:41.330400","MEAN_MOTION":"1.70473596","ECCENTRICITY":"0.00030490","INCLINATION":"55.2032","RA_OF_ASC_NODE":"135.9450","ARG_OF_PERICENTER":"241.4441","MEAN_ANOMALY":"118.5009","EPHEMERIS_TYPE":"0","CLASSIFICATION_TYPE":"U","NORAD_CAT_ID":"38857","ELEMENT_SET_NO":"999","REV_AT_EPOCH":"6367","BSTAR":"0.00000000000000","MEAN_MOTION_DOT":"0.00000032","MEAN_MOTION_DDOT":"0.0000000000000","SEMIMAJOR_AXIS":"29600.367","PERIOD":"844.706","APOAPSIS":"23231.257","PERIAPSIS":"23213.207","OBJECT_TYPE":"PAYLOAD","RCS_SIZE":"LARGE","COUNTRY_CODE":"ESA","LAUNCH_DATE":"2012-10-12","SITE":"FRGUI","DECAY_DATE":null,"FILE":"3742227","GP_ID":"222882411","TLE_LINE0":"0 GALILEO-FM3","TLE_LINE1":"1 38857U 12055A   23012.70186725  .00000032  00000-0  00000-0 0  9993","TLE_LINE2":"2 38857  55.2032 135.9450 0003049 241.4441 118.5009  1.70473596 63671"},{"CCSDS_OMM_VERS":"2.0","COMMENT":"GENERATED VIA SPACE-TRACK.ORG API","CREATION_DATE":"2023-01-14T18:58:43","ORIGINATOR":"18 SPCS","OBJECT_NAME":"GALILEO-FM3","OBJECT_ID":"2012-055A","CENTER_NAME":"EARTH","REF_FRAME":"TEME","TIME_SYSTEM":"UTC","MEAN_ELEMENT_THEORY":"SGP4","EPOCH":"2023-01-13T21:00:03.490560","MEAN_MOTION":"1.70473544","ECCENTRICITY":"0.00031080","INCLINATION":"55.2034","RA_OF_ASC_NODE":"135.9127","ARG_OF_PERICENTER":"241.8250","MEAN_ANOMALY":"118.1219","EPHEMERIS_TYPE":"0","CLASSIFICATION_TYPE":"U","NORAD_CAT_ID":"38857","ELEMENT_SET_NO":"999","REV_AT_EPOCH":"6369","BSTAR":"0.00000000000000","MEAN_MOTION_DOT":"0.00000034","MEAN_MOTION_DDOT":"0.0000000000000","SEMIMAJOR_AXIS":"29600.373","PERIOD":"844.706","APOAPSIS":"23231.438","PERIAPSIS":"23213.038","OBJECT_TYPE":"PAYLOAD","RCS_SIZE":"LARGE","COUNTRY_CODE":"ESA","LAUNCH_DATE":"2012-10-12","SITE":"FRGUI","DECAY_DATE":null,"FILE":"3744920","GP_ID":"223017754","TLE_LINE0":"0 GALILEO-FM3","TLE_LINE1":"1 38857U 12055A   23013.87504040  .00000034  00000-0  00000-0 0  9998","TLE_LINE2":"2 38857  55.2034 135.9127 0003108 241.8250 118.1219  1.70473544 63696"},{"CCSDS_OMM_VERS":"2.0","COMMENT":"GENERATED VIA SPACE-TRACK.ORG API","CREATION_DATE":"2023-01-14T14:36:12","ORIGINATOR":"18 SPCS","OBJECT_NAME":"GALILEO-FM3","OBJECT_ID":"2012-055A","CENTER_NAME":"EARTH","REF_FRAME":"TEME","TIME_SYSTEM":"UTC","MEAN_ELEMENT_THEORY":"SGP4","EPOCH":"2023-01-13T21:00:03.490560","MEAN_MOTION":"1.70473544","ECCENTRICITY":"0.00031080","INCLINATION":"55.2034","RA_OF_ASC_NODE":"135.9127","ARG_OF_PERICENTER":"241.8250","MEAN_ANOMALY":"118.1219","EPHEMERIS_TYPE":"0","CLASSIFICATION_TYPE":"U","NORAD_CAT_ID":"38857","ELEMENT_SET_NO":"999","REV_AT_EPOCH":"6383","BSTAR":"0.00000000000000","MEAN_MOTION_DOT":"0.00000034","MEAN_MOTION_DDOT":"0.0000000000000","SEMIMAJOR_AXIS":"29600.373","PERIOD":"844.706","APOAPSIS":"23231.438","PERIAPSIS":"23213.038","OBJECT_TYPE":"PAYLOAD","RCS_SIZE":"LARGE","COUNTRY_CODE":"ESA","LAUNCH_DATE":"2012-10-12","SITE":"FRGUI","DECAY_DATE":null,"FILE":"3744556","GP_ID":"222994357","TLE_LINE0":"0 GALILEO-FM3","TLE_LINE1":"1 38857U 12055A   23013.87504040  .00000034  00000-0  00000+0 0  9997","TLE_LINE2":"2 38857  55.2034 135.9127 0003108 241.8250 118.1219  1.70473544 63832"},{"CCSDS_OMM_VERS":"2.0","COMMENT":"GENERATED VIA SPACE-TRACK.ORG API","CREATION_DATE":"2023-01-18T18:00:05","ORIGINATOR":"18 SPCS","OBJECT_NAME":"GALILEO-FM3","OBJECT_ID":"2012-055A","CENTER_NAME":"EARTH","REF_FRAME":"TEME","TIME_SYSTEM":"UTC","MEAN_ELEMENT_THEORY":"SGP4","EPOCH":"2023-01-17T23:32:48.137280","MEAN_MOTION":"1.70473458","ECCENTRICITY":"0.00032410","INCLINATION":"55.2043","RA_OF_ASC_NODE":"135.7996","ARG_OF_PERICENTER":"243.3118","MEAN_ANOMALY":"116.6215","EPHEMERIS_TYPE":"0","CLASSIFICATION_TYPE":"U","NORAD_CAT_ID":"38857","ELEMENT_SET_NO":"999","REV_AT_EPOCH":"6376","BSTAR":"0.00000000000000","MEAN_MOTION_DOT":"0.00000016","MEAN_MOTION_DDOT":"0.0000000000000","SEMIMAJOR_AXIS":"29600.383","PERIOD":"844.706","APOAPSIS":"23231.841","PERIAPSIS":"23212.654","OBJECT_TYPE":"PAYLOAD","RCS_SIZE":"LARGE","COUNTRY_CODE":"ESA","LAUNCH_DATE":"2012-10-12","SITE":"FRGUI","DECAY_DATE":null,"FILE":"3753951","GP_ID":"223414328","TLE_LINE0":"0 GALILEO-FM3","TLE_LINE1":"1 38857U 12055A   23017.98111270  .00000016  00000-0  00000-0 0  9993","TLE_LINE2":"2 38857  55.2043 135.7996 0003241 243.3118 116.6215  1.70473458 63767"},{"CCSDS_OMM_VERS":"2.0","COMMENT":"GENERATED VIA SPACE-TRACK.ORG API","CREATION_DATE":"2023-01-18T22:46:13","ORIGINATOR":"18 SPCS","OBJECT_NAME":"GALILEO-FM3","OBJECT_ID":"2012-055A","CENTER_NAME":"EARTH","REF_FRAME":"TEME","TIME_SYSTEM":"UTC","MEAN_ELEMENT_THEORY":"SGP4","EPOCH":"2023-01-17T23:32:48.137280","MEAN_MOTION":"1.70473458","ECCENTRICITY":"0.00032410","INCLINATION":"55.2043","RA_OF_ASC_NODE":"135.7996","ARG_OF_PERICENTER":"243.3118","MEAN_ANOMALY":"116.6215","EPHEMERIS_TYPE":"0","CLASSIFICATION_TYPE":"U","NORAD_CAT_ID":"38857","ELEMENT_SET_NO":"999","REV_AT_EPOCH":"6390","BSTAR":"0.00000000000000","MEAN_MOTION_DOT":"0.00000016","MEAN_MOTION_DDOT":"0.0000000000000","SEMIMAJOR_AXIS":"29600.383","PERIOD":"844.706","APOAPSIS":"23231.841","PERIAPSIS":"23212.654","OBJECT_TYPE":"PAYLOAD","RCS_SIZE":"LARGE","COUNTRY_CODE":"ESA","LAUNCH_DATE":"2012-10-12","SITE":"FRGUI","DECAY_DATE":null,"FILE":"3754063","GP_ID":"223428181","TLE_LINE0":"0 GALILEO-FM3","TLE_LINE1":"1 38857U 12055A   23017.98111270  .00000016  00000-0  00000+0 0  9992","TLE_LINE2":"2 38857  55.2043 135.7996 0003241 243.3118 116.6215  1.70473458 63903"},{"CCSDS_OMM_VERS":"2.0","COMMENT":"GENERATED VIA SPACE-TRACK.ORG API","CREATION_DATE":"2023-01-19T18:09:35","ORIGINATOR":"18 SPCS","OBJECT_NAME":"GALILEO-FM3","OBJECT_ID":"2012-055A","CENTER_NAME":"EARTH","REF_FRAME":"TEME","TIME_SYSTEM":"UTC","MEAN_ELEMENT_THEORY":"SGP4","EPOCH":"2023-01-18T13:37:28.743456","MEAN_MOTION":"1.70473454","ECCENTRICITY":"0.00032480","INCLINATION":"55.2044","RA_OF_ASC_NODE":"135.7835","ARG_OF_PERICENTER":"243.3944","MEAN_ANOMALY":"116.5366","EPHEMERIS_TYPE":"0","CLASSIFICATION_TYPE":"U","NORAD_CAT_ID":"38857","ELEMENT_SET_NO":"999","REV_AT_EPOCH":"6377","BSTAR":"0.00000000000000","MEAN_MOTION_DOT":"0.00000011","MEAN_MOTION_DDOT":"0.0000000000000","SEMIMAJOR_AXIS":"29600.383","PERIOD":"844.706","APOAPSIS":"23231.862","PERIAPSIS":"23212.634","OBJECT_TYPE":"PAYLOAD","RCS_SIZE":"LARGE","COUNTRY_CODE":"ESA","LAUNCH_DATE":"2012-10-12","SITE":"FRGUI","DECAY_DATE":null,"FILE":"3754973","GP_ID":"223490201","TLE_LINE0":"0 GALILEO-FM3","TLE_LINE1":"1 38857U 12055A   23018.56769379  .00000011  00000-0  00000-0 0  9992","TLE_LINE2":"2 38857  55.2044 135.7835 0003248 243.3944 116.5366  1.70473454 63777"}]